CCSDS_OEM_VERS = 1.0
CREATION_DATE  = 2017-05-11T11:54:42
ORIGINATOR     = GMAT USER

META_START
OBJECT_NAME          = MOPSSat_alt_35785_km_RAAN_270_053
OBJECT_ID            = SatId
CENTER_NAME          = Earth
REF_FRAME            = EME2000
TIME_SYSTEM          = UTC
START_TIME           = 2017-01-01T00:00:00.000
USEABLE_START_TIME   = 2017-01-01T00:00:00.000
USEABLE_STOP_TIME    = 2017-01-02T00:00:00.000
STOP_TIME            = 2017-01-02T00:00:00.000
INTERPOLATION        = Lagrange
INTERPOLATION_DEGREE = 7 
META_STOP


                                                                                   

2017-01-01T01:22:30.000   1.489269799499400e+04  -3.944205787008003e+04  -5.177717015777116e-02   2.876780305528598e+00   1.086113521173302e+00  -2.134514409786927e-05
2017-01-01T01:22:40.000   1.492146183545683e+04  -3.943118624578200e+04  -5.199084521574678e-02   2.875987419202154e+00   1.088211199231515e+00  -2.138986637549825e-05
2017-01-01T01:22:50.000   1.495021773937534e+04  -3.942029364760998e+04  -5.220496748775275e-02   2.875193003111086e+00   1.090308298243997e+00  -2.143458694380791e-05
2017-01-01T01:23:00.000   1.497896569122835e+04  -3.940938008144582e+04  -5.241953695475148e-02   2.874397057684553e+00   1.092404817078552e+00  -2.147930575095115e-05
2017-01-01T01:23:10.000   1.500770567543046e+04  -3.939844555320869e+04  -5.263455359667507e-02   2.873599583354435e+00   1.094500754598296e+00  -2.152402274495890e-05
2017-01-01T01:23:20.000   1.503643767699135e+04  -3.938749006860428e+04  -5.285001739735779e-02   2.872800580537043e+00   1.096596109709748e+00  -2.156873787477646e-05
2017-01-01T01:23:30.000   1.506516168085468e+04  -3.937651363337602e+04  -5.306592833959490e-02   2.872000049651445e+00   1.098690881314610e+00  -2.161345108922526e-05
2017-01-01T01:23:40.000   1.509387767206884e+04  -3.936551625324055e+04  -5.328228640641364e-02   2.871197991114748e+00   1.100785068322223e+00  -2.165816233727145e-05
2017-01-01T01:23:50.000   1.512258563532751e+04  -3.935449793406081e+04  -5.349909157766888e-02   2.870394405354741e+00   1.102878669616060e+00  -2.170287156730560e-05
2017-01-01T01:24:00.000   1.515128555534899e+04  -3.934345868170355e+04  -5.371634383284405e-02   2.869589292799479e+00   1.104971684081389e+00  -2.174757872773783e-05
2017-01-01T01:24:10.000   1.517997741678869e+04  -3.933239850207206e+04  -5.393404315040662e-02   2.868782653879690e+00   1.107064110598893e+00  -2.179228376686055e-05
2017-01-01T01:24:20.000   1.520866120427352e+04  -3.932131740109477e+04  -5.415218950803181e-02   2.867974489027934e+00   1.109155948047178e+00  -2.183698663290361e-05
2017-01-01T01:24:30.000   1.523733690241749e+04  -3.931021538471770e+04  -5.437078288275005e-02   2.867164798678057e+00   1.111247195303908e+00  -2.188168727405736e-05
2017-01-01T01:24:40.000   1.526600449585607e+04  -3.929909245889140e+04  -5.458982325120772e-02   2.866353583264230e+00   1.113337851248312e+00  -2.192638563852584e-05
2017-01-01T01:24:50.000   1.529466396926266e+04  -3.928794862956572e+04  -5.480931058976393e-02   2.865540843220580e+00   1.115427914762388e+00  -2.197108167455464e-05
2017-01-01T01:25:00.000   1.532331530738183e+04  -3.927678390267539e+04  -5.502924487478009e-02   2.864726578980127e+00   1.117517384733322e+00  -2.201577533047985e-05
2017-01-01T01:25:10.000   1.535195849494248e+04  -3.926559828417440e+04  -5.524962608193876e-02   2.863910790977303e+00   1.119606260047160e+00  -2.206046655459474e-05
2017-01-01T01:25:20.000   1.538059351703447e+04  -3.925439177988673e+04  -5.547045418919119e-02   2.863093479637048e+00   1.121694539616271e+00  -2.210515529572932e-05
2017-01-01T01:25:30.000   1.540922035865210e+04  -3.924316439568675e+04  -5.569172917319505e-02   2.862274645387989e+00   1.123782222346053e+00  -2.214984150254702e-05
2017-01-01T01:25:40.000   1.543783900486670e+04  -3.923191613743138e+04  -5.591345101065590e-02   2.861454288657473e+00   1.125869307147529e+00  -2.219452512381033e-05
2017-01-01T01:25:50.000   1.546644944015750e+04  -3.922064701122279e+04  -5.613561967314638e-02   2.860632409890735e+00   1.127955792888535e+00  -2.223920610735030e-05
2017-01-01T01:26:00.000   1.549505164908088e+04  -3.920935702314579e+04  -5.635823513228304e-02   2.859809009531751e+00   1.130041678442536e+00  -2.228388440109671e-05
2017-01-01T01:26:10.000   1.552364561609755e+04  -3.919804617933543e+04  -5.658129735839439e-02   2.858984088028154e+00   1.132126962676023e+00  -2.232855995281390e-05
2017-01-01T01:26:20.000   1.555223132603005e+04  -3.918671448579867e+04  -5.680480632403195e-02   2.858157645818239e+00   1.134211644481872e+00  -2.237323271079834e-05
2017-01-01T01:26:30.000   1.558080876368509e+04  -3.917536194856122e+04  -5.702876200108101e-02   2.857329683341669e+00   1.136295722751806e+00  -2.241790262330582e-05
2017-01-01T01:26:40.000   1.560937791394067e+04  -3.916398857363363e+04  -5.725316436142484e-02   2.856500201037001e+00   1.138379196382746e+00  -2.246256963868146e-05
2017-01-01T01:26:50.000   1.563793876171183e+04  -3.915259436702327e+04  -5.747801337671310e-02   2.855669199342562e+00   1.140462064274317e+00  -2.250723370532324e-05
2017-01-01T01:27:00.000   1.566649129193512e+04  -3.914117933474186e+04  -5.770330901821044e-02   2.854836678696997e+00   1.142544325327713e+00  -2.255189477164092e-05
2017-01-01T01:27:10.000   1.569503548953450e+04  -3.912974348281909e+04  -5.792905125652720e-02   2.854002639540259e+00   1.144625978443207e+00  -2.259655278600860e-05
2017-01-01T01:27:20.000   1.572357133940484e+04  -3.911828681730778e+04  -5.815524006151899e-02   2.853167082313995e+00   1.146707022518953e+00  -2.264120769672362e-05
2017-01-01T01:27:30.000   1.575209882637891e+04  -3.910680934429895e+04  -5.838187540198877e-02   2.852330007462631e+00   1.148787456448579e+00  -2.268585945197010e-05
2017-01-01T01:27:40.000   1.578061793531384e+04  -3.909531106988617e+04  -5.860895724638813e-02   2.851491415430785e+00   1.150867279127487e+00  -2.273050799994888e-05
2017-01-01T01:27:50.000   1.580912865071615e+04  -3.908379200031930e+04  -5.883648555978128e-02   2.850651306674469e+00   1.152946489425511e+00  -2.277515328830527e-05
2017-01-01T01:28:00.000   1.583763095719635e+04  -3.907225214181868e+04  -5.906446030751401e-02   2.849809681647550e+00   1.155025086220068e+00  -2.281979526482598e-05
2017-01-01T01:28:10.000   1.586612483929975e+04  -3.906069150064401e+04  -5.929288145385422e-02   2.848966540806759e+00   1.157103068383826e+00  -2.286443387717981e-05
2017-01-01T01:28:20.000   1.589461028216209e+04  -3.904911008282878e+04  -5.952174896724080e-02   2.848121884592333e+00   1.159180434832504e+00  -2.290906907392890e-05
2017-01-01T01:28:30.000   1.592308727085549e+04  -3.903750789444485e+04  -5.975106281505190e-02   2.847275713447307e+00   1.161257184477188e+00  -2.295370080352016e-05
2017-01-01T01:28:40.000   1.595155579053691e+04  -3.902588494154297e+04  -5.998082296478174e-02   2.846428027813179e+00   1.163333316235147e+00  -2.299832901451198e-05
2017-01-01T01:28:50.000   1.598001582607819e+04  -3.901424123030049e+04  -6.021102938112678e-02   2.845578828140678e+00   1.165408829002861e+00  -2.304295365501105e-05
2017-01-01T01:29:00.000   1.600846736234102e+04  -3.900257676691237e+04  -6.044168202813140e-02   2.844728114881820e+00   1.167483721676071e+00  -2.308757467308684e-05
2017-01-01T01:29:10.000   1.603691038417651e+04  -3.899089155759020e+04  -6.067278086921243e-02   2.843875888489834e+00   1.169557993149742e+00  -2.313219201677653e-05
2017-01-01T01:29:20.000   1.606534487615282e+04  -3.897918560867721e+04  -6.090432586487790e-02   2.843022149427550e+00   1.171631642298207e+00  -2.317680563364313e-05
2017-01-01T01:29:30.000   1.609377082292244e+04  -3.896745892649434e+04  -6.113631697577614e-02   2.842166898156172e+00   1.173704668001953e+00  -2.322141547136589e-05
2017-01-01T01:29:40.000   1.612218820907740e+04  -3.895571151740051e+04  -6.136875416150179e-02   2.841310135139678e+00   1.175777069137053e+00  -2.326602147750879e-05
2017-01-01T01:29:50.000   1.615059701979058e+04  -3.894394338752774e+04  -6.160163738583833e-02   2.840451860825491e+00   1.177848844621944e+00  -2.331062360053721e-05
2017-01-01T01:30:00.000   1.617899724017433e+04  -3.893215454304578e+04  -6.183496661151984e-02   2.839592075663794e+00   1.179919993370647e+00  -2.335522178880187e-05
2017-01-01T01:30:10.000   1.620738885542565e+04  -3.892034499010271e+04  -6.206874180140677e-02   2.838730780103187e+00   1.181990514303356e+00  -2.339981599076948e-05
2017-01-01T01:30:20.000   1.623577185045726e+04  -3.890851473497502e+04  -6.230296291552011e-02   2.837867974601636e+00   1.184060406319537e+00  -2.344440615443862e-05
2017-01-01T01:30:30.000   1.626414621017188e+04  -3.889666378395697e+04  -6.253762991322563e-02   2.837003659618402e+00   1.186129668317924e+00  -2.348899222777478e-05
2017-01-01T01:30:40.000   1.629251191946172e+04  -3.888479214335943e+04  -6.277274275325849e-02   2.836137835613963e+00   1.188198299196488e+00  -2.353357415870871e-05
2017-01-01T01:30:50.000   1.632086896293694e+04  -3.887289981962684e+04  -6.300830139140338e-02   2.835270503058529e+00   1.190266297832628e+00  -2.357815189471079e-05
2017-01-01T01:31:00.000   1.634921732529186e+04  -3.886098681918071e+04  -6.324430578359551e-02   2.834401662420654e+00   1.192333663109884e+00  -2.362272538336597e-05
2017-01-01T01:31:10.000   1.637755699115786e+04  -3.884905314848220e+04  -6.348075588468301e-02   2.833531314171769e+00   1.194400393907204e+00  -2.366729457214189e-05
2017-01-01T01:31:20.000   1.640588794575362e+04  -3.883709881375828e+04  -6.371765165385095e-02   2.832659458766231e+00   1.196466489146368e+00  -2.371185940941404e-05
2017-01-01T01:31:30.000   1.643421017423314e+04  -3.882512382127591e+04  -6.395499304918754e-02   2.831786096661320e+00   1.198531947744440e+00  -2.375641984343726e-05
